{
  "type": "FeatureCollection",
  "features": [
    {
      "type": "Feature",
      "properties": {
        "norad_id": 37867,
        "name": "COSMOS 2476 (744)",
        "group": "glo-ops",
        "lat": 30.619232564033886,
        "lon": 94.83809261360749,
        "alt_km": 19184.354736871028,
        "timestamp": "2025-12-19T06:59:44.169333+00:00",
        "meta_object_name": "COSMOS 2476 (744)",
        "meta_object_id": "2011-064A",
        "meta_epoch": "2025-12-18T07:35:13.446240",
        "meta_mean_motion": 2.13103876,
        "meta_eccentricity": 0.00242895,
        "meta_inclination": 65.1659,
        "meta_ra_of_asc_node": 78.9826,
        "meta_arg_of_pericenter": 234.6288,
        "meta_mean_anomaly": 131.1641,
        "meta_ephemeris_type": 0,
        "meta_classification_type": "U",
        "meta_norad_cat_id": 37867,
        "meta_element_set_no": 999,
        "meta_rev_at_epoch": 10991,
        "meta_bstar": 0,
        "meta_mean_motion_dot": -4e-07,
        "meta_mean_motion_ddot": 0,
        "tle_line1": "1 37867U 11064A   25352.31612785 -.00000040  00000+0  00000+0 0  9996",
        "tle_line2": "2 37867  65.1659  78.9826 0024289 234.6288 131.1641  2.13103876109911"
      },
      "geometry": {
        "type": "Point",
        "coordinates": [
          94.83809261360749,
          30.619232564033886
        ]
      }
    },
    {
      "type": "Feature",
      "properties": {
        "norad_id": 37868,
        "name": "COSMOS 2477 (745)",
        "group": "glo-ops",
        "lat": -31.299828148796426,
        "lon": -84.64399671705206,
        "alt_km": 19083.121534255482,
        "timestamp": "2025-12-19T06:59:44.169370+00:00",
        "meta_object_name": "COSMOS 2477 (745)",
        "meta_object_id": "2011-064B",
        "meta_epoch": "2025-12-18T12:02:16.818720",
        "meta_mean_motion": 2.13102921,
        "meta_eccentricity": 0.00212144,
        "meta_inclination": 65.1723,
        "meta_ra_of_asc_node": 79.0538,
        "meta_arg_of_pericenter": 234.8854,
        "meta_mean_anomaly": 94.0943,
        "meta_ephemeris_type": 0,
        "meta_classification_type": "U",
        "meta_norad_cat_id": 37868,
        "meta_element_set_no": 999,
        "meta_rev_at_epoch": 10990,
        "meta_bstar": 0,
        "meta_mean_motion_dot": -3.8e-07,
        "meta_mean_motion_ddot": 0,
        "tle_line1": "1 37868U 11064B   25352.50158355 -.00000038  00000+0  00000+0 0  9993",
        "tle_line2": "2 37868  65.1723  79.0538 0021214 234.8854  94.0943  2.13102921109903"
      },
      "geometry": {
        "type": "Point",
        "coordinates": [
          -84.64399671705206,
          -31.299828148796426
        ]
      }
    },
    {
      "type": "Feature",
      "properties": {
        "norad_id": 37869,
        "name": "COSMOS 2475 (743)",
        "group": "glo-ops",
        "lat": 8.51140979793022,
        "lon": -104.906200031609,
        "alt_km": 19115.37020277757,
        "timestamp": "2025-12-19T06:59:44.169396+00:00",
        "meta_object_name": "COSMOS 2475 (743)",
        "meta_object_id": "2011-064C",
        "meta_epoch": "2025-12-18T05:19:14.657088",
        "meta_mean_motion": 2.13101609,
        "meta_eccentricity": 0.0026433,
        "meta_inclination": 65.1789,
        "meta_ra_of_asc_node": 79.0834,
        "meta_arg_of_pericenter": 248.8457,
        "meta_mean_anomaly": 181.3342,
        "meta_ephemeris_type": 0,
        "meta_classification_type": "U",
        "meta_norad_cat_id": 37869,
        "meta_element_set_no": 999,
        "meta_rev_at_epoch": 10991,
        "meta_bstar": 0,
        "meta_mean_motion_dot": -4.1e-07,
        "meta_mean_motion_ddot": 0,
        "tle_line1": "1 37869U 11064C   25352.22169742 -.00000041  00000+0  00000+0 0  9999",
        "tle_line2": "2 37869  65.1789  79.0834 0026433 248.8457 181.3342  2.13101609109913"
      },
      "geometry": {
        "type": "Point",
        "coordinates": [
          -104.906200031609,
          8.51140979793022
        ]
      }
    },
    {
      "type": "Feature",
      "properties": {
        "norad_id": 39155,
        "name": "COSMOS 2485 (747)",
        "group": "glo-ops",
        "lat": 64.21403218592454,
        "lon": 151.49950674990396,
        "alt_km": 19176.382840184335,
        "timestamp": "2025-12-19T06:59:44.169410+00:00",
        "meta_object_name": "COSMOS 2485 (747)",
        "meta_object_id": "2013-019A",
        "meta_epoch": "2025-12-18T17:09:02.723904",
        "meta_mean_motion": 2.13103162,
        "meta_eccentricity": 0.00247945,
        "meta_inclination": 65.3168,
        "meta_ra_of_asc_node": 79.6662,
        "meta_arg_of_pericenter": 230.0008,
        "meta_mean_anomaly": 129.8045,
        "meta_ephemeris_type": 0,
        "meta_classification_type": "U",
        "meta_norad_cat_id": 39155,
        "meta_element_set_no": 999,
        "meta_rev_at_epoch": 9843,
        "meta_bstar": 0,
        "meta_mean_motion_dot": -3.5e-07,
        "meta_mean_motion_ddot": 0,
        "tle_line1": "1 39155U 13019A   25352.71461486 -.00000035  00000+0  00000+0 0  9998",
        "tle_line2": "2 39155  65.3168  79.6662 0024794 230.0008 129.8045  2.13103162 98431"
      },
      "geometry": {
        "type": "Point",
        "coordinates": [
          151.49950674990396,
          64.21403218592454
        ]
      }
    },
    {
      "type": "Feature",
      "properties": {
        "norad_id": 39620,
        "name": "COSMOS 2492 (754)",
        "group": "glo-ops",
        "lat": 55.971245560105736,
        "lon": 97.33517905218842,
        "alt_km": 19158.073059483988,
        "timestamp": "2025-12-19T06:59:44.169436+00:00",
        "meta_object_name": "COSMOS 2492 (754)",
        "meta_object_id": "2014-012A",
        "meta_epoch": "2025-12-18T04:53:42.056736",
        "meta_mean_motion": 2.13103354,
        "meta_eccentricity": 0.0014217,
        "meta_inclination": 65.4043,
        "meta_ra_of_asc_node": 320.0846,
        "meta_arg_of_pericenter": 312.4931,
        "meta_mean_anomaly": 47.3782,
        "meta_ephemeris_type": 0,
        "meta_classification_type": "U",
        "meta_norad_cat_id": 39620,
        "meta_element_set_no": 999,
        "meta_rev_at_epoch": 9138,
        "meta_bstar": 0,
        "meta_mean_motion_dot": -6.4e-07,
        "meta_mean_motion_ddot": 0,
        "tle_line1": "1 39620U 14012A   25352.20395899 -.00000064  00000+0  00000+0 0  9999",
        "tle_line2": "2 39620  65.4043 320.0846 0014217 312.4931  47.3782  2.13103354 91389"
      },
      "geometry": {
        "type": "Point",
        "coordinates": [
          97.33517905218842,
          55.971245560105736
        ]
      }
    },
    {
      "type": "Feature",
      "properties": {
        "norad_id": 40001,
        "name": "COSMOS 2500 (755)",
        "group": "glo-ops",
        "lat": -16.04739177121237,
        "lon": -47.79791286782971,
        "alt_km": 19143.338628079542,
        "timestamp": "2025-12-19T06:59:44.169449+00:00",
        "meta_object_name": "COSMOS 2500 (755)",
        "meta_object_id": "2014-032A",
        "meta_epoch": "2025-12-17T21:45:50.523264",
        "meta_mean_motion": 2.13106065,
        "meta_eccentricity": 0.00080575,
        "meta_inclination": 65.3403,
        "meta_ra_of_asc_node": 319.8565,
        "meta_arg_of_pericenter": 219.1485,
        "meta_mean_anomaly": 140.7851,
        "meta_ephemeris_type": 0,
        "meta_classification_type": "U",
        "meta_norad_cat_id": 40001,
        "meta_element_set_no": 999,
        "meta_rev_at_epoch": 8959,
        "meta_bstar": 0,
        "meta_mean_motion_dot": -6.5e-07,
        "meta_mean_motion_ddot": 0,
        "tle_line1": "1 40001U 14032A   25351.90683476 -.00000065  00000+0  00000+0 0  9994",
        "tle_line2": "2 40001  65.3403 319.8565 0008057 219.1485 140.7851  2.13106065 89596"
      },
      "geometry": {
        "type": "Point",
        "coordinates": [
          -47.79791286782971,
          -16.04739177121237
        ]
      }
    },
    {
      "type": "Feature",
      "properties": {
        "norad_id": 40315,
        "name": "COSMOS 2501 (702K)",
        "group": "glo-ops",
        "lat": 32.88468915924977,
        "lon": -2.126653774407487,
        "alt_km": 19101.585834787307,
        "timestamp": "2025-12-19T06:59:44.169461+00:00",
        "meta_object_name": "COSMOS 2501 (702K)",
        "meta_object_id": "2014-075A",
        "meta_epoch": "2025-12-17T16:44:15.819648",
        "meta_mean_motion": 2.1310145,
        "meta_eccentricity": 0.0020092,
        "meta_inclination": 63.6148,
        "meta_ra_of_asc_node": 196.6532,
        "meta_arg_of_pericenter": 204.0953,
        "meta_mean_anomaly": 155.89,
        "meta_ephemeris_type": 0,
        "meta_classification_type": "U",
        "meta_norad_cat_id": 40315,
        "meta_element_set_no": 999,
        "meta_rev_at_epoch": 8598,
        "meta_bstar": 0,
        "meta_mean_motion_dot": 1.11e-06,
        "meta_mean_motion_ddot": 0,
        "tle_line1": "1 40315U 14075A   25351.69740532  .00000111  00000+0  00000+0 0  9993",
        "tle_line2": "2 40315  63.6148 196.6532 0020092 204.0953 155.8900  2.13101450 85986"
      },
      "geometry": {
        "type": "Point",
        "coordinates": [
          -2.126653774407487,
          32.88468915924977
        ]
      }
    }
  ]
}